1 25114U 97084C   16029.62184450 +.00000344 +00000-0 +15867-3 0  9990,2 25114 045.0168 100.9933 0008516 259.1935 100.7955 14.38183090947675
1 25114U 97084C   16030.59435117  .00000342  00000-0  15812-3 0  9995,2 25114  45.0168  96.3824 0008538 263.6626  96.3250 14.38184133947805
1 25114U 97084C   16031.63632192  .00000348  00000-0  16007-3 0  9996,2 25114  45.0168  91.4420 0008565 268.4600  91.5267 14.38185291947955
1 25114U 97084C   16033.16454461  .00000368  00000-0  16650-3 0  9993,2 25114  45.0168  84.1959 0008590 275.4643  84.5226 14.38186956948175
1 25114U 97084C   16034.20651385  .00000369  00000-0  16687-3 0  9994,2 25114  45.0168  79.2554 0008594 280.2150  79.7730 14.38188013948321
1 25114U 97084C   16035.38741138  .00000400  00000-0  17686-3 0  9996,2 25114  45.0168  73.6562 0008583 285.6387  74.3515 14.38189455948498
1 25114U 97084C   16036.49884323  .00000402  00000-0  17762-3 0  9990,2 25114  45.0168  68.3863 0008565 290.7964  69.1966 14.38190821948650
1 25114U 97084C   16037.54080960  .00000459  00000-0  19633-3 0  9993,2 25114  45.0169  63.4458 0008546 295.6444  64.3521 14.38192473948809
1 25114U 97084C   16039.06902523  .00000541  00000-0  22279-3 0  9992,2 25114  45.0170  56.1995 0008511 302.7430  57.2598 14.38194929949021
1 25114U 97084C   16040.18045331  .00000542  00000-0  22339-3 0  9990,2 25114  45.0171  50.9297 0008468 307.9222  52.0861 14.38196543949183
1 25114U 97084C   16041.50027226  .00000659  00000-0  26157-3 0  9991,2 25114  45.0171  44.6719 0008409 314.1631  45.8526 14.38199286949377
1 25114U 97084C   16043.09794545  .00000627  00000-0  25111-3 0  9996,2 25114  45.0172  37.0962 0008330 321.7717  38.2540 14.38201778949604
1 25114U 97084C   16044.13990459  .00000629  00000-0  25162-3 0  9992,2 25114  45.0173  32.1557 0008279 326.8740  33.1589 14.38203562949751
1 25114U 97084C   16045.18186248  .00000714  00000-0  27926-3 0  9996,2 25114  45.0174  27.2152 0008229 332.0777  27.9629 14.38205794949904
1 25114U 97084C   16046.36274676  .00000658  00000-0  26099-3 0  9997,2 25114  45.0174  21.6160 0008147 337.8218  22.2277 14.38207470950073
1 25114U 97084C   16046.91845639 +.00000626 +00000-0 +25053-3 0  9995,2 25114 045.0175 018.9810 0008115 340.5480 019.5058 14.38208256950161
1 25114U 97084C   16047.82148325  .00000776  00000-0  29967-3 0  9998,2 25114  45.0176  14.6993 0008046 344.9644  15.0964 14.38210808950286
1 25114U 97084C   16047.96040997 +.00000856 +00000-0 +32549-3 0  9998,2 25114 045.0176 014.0405 0008037 345.7174 014.3446 14.38211633950313
1 25114U 97084C   16049.21075329  .00000685  00000-0  26976-3 0  9992,2 25114  45.0177   8.1121 0007945 352.0926   7.9797 14.38213087950486
1 25114U 97084C   16050.25270453  .00000734  00000-0  28567-3 0  9996,2 25114  45.0178   3.1717 0007872 357.4322   2.6485 14.38215259950637
1 25114U 97084C   16051.29465465  .00000609  00000-0  24493-3 0  9995,2 25114  45.0178 358.2314 0007791   2.7091 357.3799 14.38216399950787
1 25114U 97084C   16051.91982434 +.00000496 +00000-0 +20811-3 0  9998,2 25114 045.0178 355.2670 0007742 005.9479 354.1460 14.38216789950884
1 25114U 97084C   16052.82284647  .00000496  00000-0  20829-3 0  9999,2 25114  45.0177 350.9853 0007679  10.6445 349.4565 14.38218195951004
1 25114U 97084C   16052.89230962 +.00000448 +00000-0 +19263-3 0  9994,2 25114 045.0177 350.6559 0007668 011.0040 349.0975 14.38218072951025
1 25114U 97084C   16053.86479409  .00000435  00000-0  18849-3 0  9998,2 25114  45.0177 346.0448 0007595  16.1671 343.9419 14.38219429951153
1 25114U 97084C   16055.11513006  .00000361  00000-0  16438-3 0  9990,2 25114  45.0177 340.1163 0007520  22.9851 337.1333 14.38220705951334
1 25114U 97084C   16056.15707583  .00000373  00000-0  16830-3 0  9999,2 25114  45.0177 335.1758 0007460  28.6492 331.4765 14.38221960951481
1 25114U 97084C   16056.85170599 +.00000357 +00000-0 +16306-3 0  9997,2 25114 045.0176 331.8821 0007418 032.4273 327.7030 14.38222586951597
1 25114U 97084C   16057.82418754  .00000375  00000-0  16877-3 0  9996,2 25114  45.0176 327.2710 0007368  37.7999 322.3366 14.38223675951728
1 25114U 97084C   16059.14398259  .00000331  00000-0  15429-3 0  9994,2 25114  45.0174 321.0132 0007303  45.1949 314.9492 14.38224859951916
1 25114U 97084C   16059.83861106 +.00000362 +00000-0 +16444-3 0  9998,2 25114 045.0173 317.7195 0007270 049.0573 311.0903 14.38225748952021
1 25114U 97084C   16060.81109018  .00000311  00000-0  14779-3 0  9998,2 25114  45.0172 313.1084 0007230  54.5712 305.5810 14.38226486952158
1 25114U 97084C   16061.85303133  .00000363  00000-0  16503-3 0  9991,2 25114  45.0170 308.1677 0007194  60.5163 299.6403 14.38227762952300
1 25114U 97084C   16061.92249398 +.00000320 +00000-0 +15088-3 0  9991,2 25114 045.0170 307.8384 0007192 060.9465 299.2103 14.38227620952326
1 25114U 97084C   16063.03389697  .00000360  00000-0  16383-3 0  9995,2 25114  45.0168 302.5685 0007168  67.2556 292.9050 14.38228826952479
1 25114U 97084C   16064.21476103  .00000369  00000-0  16674-3 0  9997,2 25114  45.0165 296.9691 0007147  73.9974 286.1661 14.38230121952647
1 25114U 97084C   16065.46508650  .00000437  00000-0  18889-3 0  9994,2 25114  45.0163 291.0401 0007138  81.3329 278.8328 14.38231791952829
1 25114U 97084C   16066.50702311  .00000448  00000-0  19239-3 0  9992,2 25114  45.0162 286.0994 0007137  87.3582 272.8083 14.38233029952979
1 25114U 97084C   16066.71541027 +.00000461 +00000-0 +19665-3 0  9998,2 25114 045.0162 285.1112 0007141 088.6115 271.5551 14.38233356953017
1 25114U 97084C   16067.68788284  .00000519  00000-0  21556-3 0  9999,2 25114  45.0161 280.4998 0007152  94.1955 265.9711 14.38234922953141
1 25114U 97084C   16069.07712775  .00000491  00000-0  20653-3 0  9992,2 25114  45.0159 273.9124 0007182 102.0518 258.1136 14.38236609953344
1 25114U 97084C   16070.39690840  .00000487  00000-0  20537-3 0  9993,2 25114  45.0158 267.6539 0007206 109.7218 250.4409 14.38238391953530
1 25114U 97084C   16071.50830103  .00000480  00000-0  20298-3 0  9992,2 25114  45.0156 262.3835 0007257 116.2696 243.8899 14.38239953953699
1 25114U 97084C   16071.85561066 +.00000584 +00000-0 +23671-3 0  9992,2 25114 045.0156 260.7366 0007267 118.2624 241.8958 14.38241091953751
1 25114U 97084C   16072.82807776  .00000511  00000-0  21296-3 0  9992,2 25114  45.0155 256.1250 0007322 123.9325 236.2220 14.38242065953880
1 25114U 97084C   16072.89753964 +.00000484 +00000-0 +20433-3 0  9999,2 25114 045.0156 255.7956 0007327 124.3447 235.8096 14.38242026953900
1 25114U 97084C   16074.00892940  .00000492  00000-0  20687-3 0  9992,2 25114  45.0155 250.5251 0007390 130.6322 229.5170 14.38243502954052
1 25114U 97084C   16074.84247105 +.00000507 +00000-0 +21159-3 0  9993,2 25114 045.0155 246.5723 0007437 135.2714 224.8735 14.38244586954181
1 25114U 97084C   16075.81493495  .00000546  00000-0  22446-3 0  9999,2 25114  45.0155 241.9607 0007505 140.7644 219.3750 14.38246141954310
1 25114U 97084C   16075.88439663 +.00000545 +00000-0 +22400-3 0  9992,2 25114 045.0155 241.6313 0007510 141.1351 219.0039 14.38246233954338
1 25114U 97084C   16076.92632102  .00000519  00000-0  21573-3 0  9992,2 25114  45.0156 236.6903 0007587 146.8655 213.2670 14.38247612954475
1 25114U 97084C   16078.52393648  .00000497  00000-0  20849-3 0  9999,2 25114  45.0158 229.1143 0007709 155.6780 204.4433 14.38249722954702
1 25114U 97084C   16078.87124376 +.00000475 +00000-0 +20122-3 0  9997,2 25114 045.0159 227.4675 0007732 157.4625 202.6564 14.38250119954761
1 25114U 97084C   16079.84370377  .00000467  00000-0  19872-3 0  9990,2 25114  45.0159 222.8562 0007812 162.6883 197.4233 14.38251381954898
1 25114U 97084C   16081.16346956  .00000461  00000-0  19652-3 0  9994,2 25114  45.0160 216.5979 0007924 169.7906 190.3104 14.38253085955084
1 25114U 97084C   16081.51077603 +.00000442 +00000-0 +19057-3 0  9991,2 25114 045.0159 214.9510 0007959 171.5955 188.5028 14.38253458955132
1 25114U 97084C   16082.76107859  .00000370  00000-0  16706-3 0  9994,2 25114  45.0159 209.0221 0008068 178.1091 181.9789 14.38254699955311
1 25114U 97084C   16084.15030219  .00000391  00000-0  17381-3 0  9997,2 25114  45.0160 202.4344 0008188 185.4093 174.6668 14.38256470955518
1 25114U 97084C   16085.47006360  .00000337  00000-0  15618-3 0  9994,2 25114  45.0160 196.1760 0008311 192.0772 167.9878 14.38257550955704
1 25114U 97084C   16086.51197976  .00000328  00000-0  15331-3 0  9996,2 25114  45.0160 191.2353 0008402 197.3775 162.6787 14.38258509955852
1 25114U 97084C   16086.78982387 +.00000329 +00000-0 +15344-3 0  9998,2 25114 045.0160 189.9178 0008433 198.6464 161.4076 14.38258800955902
1 25114U 97084C   16087.69281701  .00000321  00000-0  15102-3 0  9995,2 25114  45.0160 185.6357 0008512 203.1219 156.9247 14.38259681956023
1 25114U 97084C   16089.15149683  .00000320  00000-0  15081-3 0  9995,2 25114  45.0161 178.7187 0008642 210.3314 149.7036 14.38261258956230
1 25114U 97084C   16090.19341036  .00000306  00000-0  14593-3 0  9998,2 25114  45.0161 173.7781 0008719 215.3725 144.6545 14.38262229956385
1 25114U 97084C   16091.23532307  .00000331  00000-0  15426-3 0  9991,2 25114  45.0160 168.8374 0008795 220.3611 139.6586 14.38263416956536
1 25114U 97084C   16092.48561748  .00000326  00000-0  15267-3 0  9997,2 25114  45.0159 162.9085 0008880 226.2986 133.7127 14.38264642956711
1 25114U 97084C   16092.69399977 +.00000325 +00000-0 +15217-3 0  9997,2 25114 045.0158 161.9204 0008891 227.2918 132.7182 14.38264857956752
1 25114U 97084C   16093.66645026  .00000309  00000-0  14692-3 0  9992,2 25114  45.0157 157.3089 0008946 231.9006 128.1037 14.38265758956885
1 25114U 97084C   16095.19458552  .00000295  00000-0  14237-3 0  9997,2 25114  45.0156 150.0622 0009022 239.1949 120.8012 14.38267247957102
1 25114U 97084C   16096.44487947  .00000293  00000-0  14191-3 0  9993,2 25114  45.0156 144.1326 0009070 244.3535 115.6377 14.38261958957287
1 25114U 97084C   16097.48679338  .00000304  00000-0  14535-3 0  9990,2 25114  45.0157 139.1923 0009090 249.8207 110.1664 14.38263161957437
